[{"OBJECT_NAME":"STARLINK-1420","OBJECT_ID":"2020-035AQ","EPOCH":"2026-03-10T00:00:02.999808","MEAN_MOTION":15.53743401,"ECCENTRICITY":0.00043485,"INCLINATION":53.0536,"RA_OF_ASC_NODE":20.9202,"ARG_OF_PERICENTER":112.4673,"MEAN_ANOMALY":249.9349,"EPHEMERIS_TYPE":0,"CLASSIFICATION_TYPE":"U","NORAD_CAT_ID":45695,"ELEMENT_SET_NO":999,"REV_AT_EPOCH":587,"BSTAR":0.0013975342,"MEAN_MOTION_DOT":0.00091715,"MEAN_MOTION_DDOT":0},{"OBJECT_NAME":"STARLINK-36619","OBJECT_ID":"2026-020AE","EPOCH":"2026-03-09T22:00:01.999584","MEAN_MOTION":15.6863066,"ECCENTRICITY":0.00014755,"INCLINATION":42.9998,"RA_OF_ASC_NODE":140.5322,"ARG_OF_PERICENTER":280.7274,"MEAN_ANOMALY":123.0439,"EPHEMERIS_TYPE":0,"CLASSIFICATION_TYPE":"U","NORAD_CAT_ID":67645,"ELEMENT_SET_NO":999,"REV_AT_EPOCH":599,"BSTAR":-0.019020349,"MEAN_MOTION_DOT":-0.0196604,"MEAN_MOTION_DDOT":0}]
